[{"OBJECT_NAME":"STRIX-1","OBJECT_ID":"2022-113A","EPOCH":"2026-03-09T22:33:41.440608","MEAN_MOTION":15.35318085,"ECCENTRICITY":0.00036327,"INCLINATION":97.4624,"RA_OF_ASC_NODE":129.4671,"ARG_OF_PERICENTER":211.3613,"MEAN_ANOMALY":148.7414,"EPHEMERIS_TYPE":0,"CLASSIFICATION_TYPE":"U","NORAD_CAT_ID":53815,"ELEMENT_SET_NO":999,"REV_AT_EPOCH":19219,"BSTAR":0.00077819199,"MEAN_MOTION_DOT":0.00026675,"MEAN_MOTION_DDOT":0},{"OBJECT_NAME":"BREEZE-M DEB","OBJECT_ID":"2006-006CU","EPOCH":"2026-03-07T22:14:14.143776","MEAN_MOTION":7.29966514,"ECCENTRICITY":0.39604911,"INCLINATION":51.5588,"RA_OF_ASC_NODE":237.796,"ARG_OF_PERICENTER":70.3802,"MEAN_ANOMALY":327.6093,"EPHEMERIS_TYPE":0,"CLASSIFICATION_TYPE":"U","NORAD_CAT_ID":36962,"ELEMENT_SET_NO":999,"REV_AT_EPOCH":25364,"BSTAR":0.027340128,"MEAN_MOTION_DOT":0.00073308,"MEAN_MOTION_DDOT":0}]
